HELIOS 1B               
1 25977U 99064A   26087.61312478  .00001754  00000+0  19858-3 0  9993
2 25977  98.1673 350.4109 0001836  48.8254 311.3119 14.87769378688075
TERRA                   
1 25994U 99068A   26087.63646833  .00000436  00000+0  97816-4 0  9990
2 25994  97.9553 140.3437 0003569 111.9893  49.4323 14.61034278397848
SL-16 R/B               
1 26070U 00006B   26087.31118157  .00000328  00000+0  19087-3 0  9991
2 26070  71.0019  58.6787 0015759 160.6900 199.4824 14.15826846351196
TITAN 4B R/B            
1 26474U 00047B   26087.57894056  .00004167  00000+0  26124-3 0  9996
2 26474  67.9914 347.3894 0039839  13.2851 346.9337 15.09734736395761
ENVISAT                 
1 27386U 02009A   26087.61556361  .00000122  00000+0  53324-4 0  9998
2 27386  98.3758  40.7659 0001207  81.4044  91.4402 14.39043347261894
IDEFIX & ARIANE 42P R/B 
1 27422U 02021B   26087.58392802  .00000285  00000+0  12473-3 0  9996
2 27422  98.5891  25.9668 0012578 128.2136 232.0181 14.31038615246721
AQUA                    
1 27424U 02022A   26087.58697034  .00001029  00000+0  21489-3 0  9998
2 27424  98.4205  55.3007 0001125 117.9874  11.4525 14.62019053271497
CZ-4B R/B               
1 27432U 02024C   26087.61540551  .00000038  00000+0  42536-4 0  9990
2 27432  98.8799 140.9234 0049522 330.3180 144.8460 14.14550972231914
MIDORI II (ADEOS-II)    
1 27597U 02056A   26087.49488130  .00000325  00000+0  14564-3 0  9995
2 27597  98.7800  46.1062 0000758  19.4363 340.6847 14.29298936212986
H-2A R/B                
1 27601U 02056E   26087.64101551  .00000307  00000+0  12189-3 0  9998
2 27601  98.3234  47.2888 0071357 104.8398  67.2412 14.33773063216828
CZ-4B R/B               
1 28059U 03049C   26087.56967005  .00000375  00000+0  97370-4 0  9995
2 28059  98.6892  83.2177 0048263 172.7332 187.4574 14.55036759189340
CZ-2C R/B               
1 28222U 04012C   26087.14443345  .00063830  00000+0  60221-3 0  9997
2 28222  97.7185 154.2126 0013293 235.4780 124.5225 15.66741264207162
SL-16 R/B               
1 28353U 04021B   26087.54943933  .00000180  00000+0  11854-3 0  9991
2 28353  71.0008 192.9144 0004955 346.6717  13.4274 14.14594754125504
CZ-4B R/B               
1 28415U 04035C   26087.55807640  .00009135  00000+0  31889-3 0  9999
2 28415  97.3474 121.5757 0030010 260.9201  98.8644 15.29385346182790
CZ-2C R/B               
1 28480U 04046B   26087.34740636  .00000138  00000+0  65830-4 0  9999
2 28480  98.1977   1.1690 0140593  99.6174 262.0924 14.26998585111162
ARIANE 5 R/B            
1 28499U 04049H   26087.42821705  .00000889  00000+0  10456-3 0  9994
2 28499  98.2656 256.5905 0082931 290.6503  68.5833 14.85299028148576
CZ-2D R/B               
1 28738U 05024B   26087.49187847  .00049840  00000+0  57362-3 0  9990
2 28738  97.3581 103.3508 0002437 340.8411  19.2754 15.61848764142713
